ORBCOMM FM26 [-]        
1 25480U 98053F   17345.86148288  .00000035  00000-0  64262-4 0  9991
2 25480  45.0076 220.2731 0005815 288.9093  71.1122 14.32450012  3850
